[
    {
        "Altitude(m)": 604969.0890405901,
        "Argument of Periapsis(deg)": 0.0,
        "Eccentricity": 0.0,
        "Inclination(deg)": 60.0,
        "Latitude(deg)": -0.0925807380554211,
        "Longitude(deg)": 39.977527764265375,
        "Mean Anomaly(deg)": 0.0,
        "RAAN(deg)": 140.0,
        "Satellite Name": "Test1 616",
        "Satellite Number": 616,
        "Semi-Major Axis(m)": 6980739.136638005,
        "Time(s)": 0
    },
    {
        "Altitude(m)": 604900.0290983821,
        "Argument of Periapsis(deg)": 0.00010418945913296404,
        "Eccentricity": 0.0,
        "Inclination(deg)": 60.0,
        "Latitude(deg)": 0.44784562323591753,
        "Longitude(deg)": 40.24564986665323,
        "Mean Anomaly(deg)": 0.6201061454618275,
        "RAAN(deg)": 139.99957995086024,
        "Satellite Name": "Test1 616",
        "Satellite Number": 616,
        "Semi-Major Axis(m)": 6980739.136638005,
        "Time(s)": 10
    }
]